LEMUR-2-ROUNDTRIPPER    
1 62711U 25009DG  26191.18034679  .00006792  00000+0  49345-3 0  9991
2 62711  97.7237 273.8296 0004379  74.9945 285.1765 15.04178168 81084
LEMUR-2-MYNAMEISJEFF    
1 62712U 25009DH  26191.04575780  .00006729  00000+0  48908-3 0  9994
2 62712  97.7289 274.0900 0003672 109.4233 250.7389 15.04168528 81063
LEMUR-2-LEIA-PHILIP     
1 63246U 25052AN  26190.52338647  .00001484  00000+0  13266-3 0  9998
2 63246  97.6816  82.0959 0005011 132.9473 227.2170 14.97383380 72016
LEMUR-2-LIA-MARTIN      
1 63248U 25052AQ  26191.12148622  .00003770  00000+0  32410-3 0  9991
2 63248  97.6875  83.1935 0005413 102.3403 257.8426 14.98002545 72115
LEMUR-2-DELOITTE-1      
1 63259U 25052BB  26189.69813140  .00002354  00000+0  20556-3 0  9991
2 63259  97.6884  82.1233 0002308  66.8273 293.3192 14.97751965 71914
LEMUR-2-EMERSONROSE     
1 63261U 25052BD  26191.18713981  .00003381  00000+0  28198-3 0  9994
2 63261  97.6882  84.1911 0002796  68.6204 291.5317 14.99261714 72184
LEMUR-2-MARACHE-FRAN    
1 63262U 25052BE  26191.21328215  .00002533  00000+0  20688-3 0  9995
2 63262  97.6852  84.5777 0004672 274.4307  85.6383 15.00296503 72218
LEMUR-2-THEFALCONER     
1 63264U 25052BG  26190.12857510  .00002526  00000+0  22141-3 0  9999
2 63264  97.6850  82.1435 0000734  22.7964 337.3291 14.97544949 71973
LEMUR-2-UNTITLED-SC     
1 63351U 25061A   26190.83116593  .00002220  00000+0  12684-3 0  9995
2 63351  97.5647 166.0309 0018628 181.3182 178.8003 15.13624093 71012
LEMUR-2-ESPERANZA       
1 63352U 25061B   26190.74077637  .00002746  00000+0  15555-3 0  9994
2 63352  97.5652 166.0400 0018314 180.7928 179.3277 15.13732114 71006
LEMUR-2-KREMPEL-BRO2    
1 63353U 25061C   26190.95953525  .00002495  00000+0  13996-3 0  9995
2 63353  97.5701 166.8197 0019435 172.8063 187.3451 15.14156670 71056
LEMUR-2-THERMORAPTOR    
1 63354U 25061D   26190.74213578  .00002595  00000+0  14510-3 0  9994
2 63354  97.5705 166.6835 0019228 172.4021 187.7505 15.14238591 71022
LEMUR-2-NEUROSPICY      
1 63355U 25061E   26190.84422616  .00002196  00000+0  12307-3 0  9990
2 63355  97.5633 166.3937 0016911 174.9087 185.2320 15.14357841 71048
LEMUR-2-TILLINFINITY    
1 63356U 25061F   26190.47445395  .00002798  00000+0  15316-3 0  9990
2 63356  97.5618 166.3322 0018516 164.8306 195.3485 15.14939881 71016
LEMUR-2-KREMPEL-BRO1    
1 63357U 25061G   26190.78107142  .00002223  00000+0  12303-3 0  9996
2 63357  97.5620 166.5469 0019099 165.2122 194.9673 15.14748847 71050
LEMUR-2-LANGER2SPACE    
1 63358U 25061H   26190.48174336  .00002673  00000+0  14862-3 0  9994
2 63358  97.5624 166.0543 0016822 174.4516 185.6905 15.14440730 70990
LEMUR-2-BALTO           
1 63395U 25052BH  26191.13110204  .00003644  00000+0  29517-3 0  9994
2 63395  97.6934  84.4803 0005407 348.2785  11.8312 15.00335374 72204
LEMUR-2-KRISH           
1 64561U 25135AK  26191.27911249  .00003597  00000+0  32233-3 0  9991
2 64561  97.7764 306.0004 0001701  98.2728 261.8686 14.96425392 57376
LEMUR-2-HUBBLE-4        
1 64565U 25135AP  26191.25090494  .00001080  00000+0  10748-3 0  9995
2 64565  97.7714 304.8882 0002273 176.7097 183.4138 14.93675738 57314
LEMUR-2-SEJONG-2        
1 64586U 25135BL  26191.30166175  .00002252  00000+0  20141-3 0  9994
2 64586  97.7702 306.1689 0003539 241.4625 118.6241 14.96889895 57406
LEMUR-2-HUBBLE-5        
1 64840U 25135BT  26190.25698740  .00001340  00000+0  13040-3 0  9995
2 64840  97.7734 304.5681 0004115 260.6132  99.4623 14.94201118 57207
LEMUR-2-KARENDARRELL    
1 64841U 25135BU  26189.86116779  .00004672  00000+0  37564-3 0  9996
2 64841  97.7693 306.0385 0011750 124.4354 235.7982 15.00440878 57261
LEMUR-2-LUCILLE-ROSE    
1 65403U 25135BV  26191.30173440  .00004504  00000+0  36198-3 0  9997
2 65403  97.7711 307.5136 0014272 204.1492 155.9064 15.00452808 52106
LEMUR-2-AFFIE-WAUWIE    
1 66295U 25248C   26190.48603678  .00015798  00000+0  57531-3 0  9992
2 66295  45.3911 354.0945 0008581 222.2323 137.7906 15.28090558 38008
OTTER SDM               
1 66678U 25276N   26190.17264076  .00004363  00000+0  20565-3 0  9992
2 66678  97.4202 263.2859 0004240 282.7766  77.2995 15.20009823 33759
LEMUR-2-STAS-GORBUK     
1 66686U 25276W   26191.18022635  .00003572  00000+0  17083-3 0  9998
2 66686  97.4240 264.3294 0003446 274.0299  86.0542 15.19626289 33909
LEMUR-2-TEODOR          
1 66768U 25276DG  26191.13875512  .00004087  00000+0  18579-3 0  9997
2 66768  97.4142 264.5538 0002300  92.7088 267.4411 15.21303330 33938
LEMUR-2-LAILA           
1 66776U 25276DQ  26189.72822619  .00003860  00000+0  17456-3 0  9999
2 66776  97.4166 263.2996 0002898 104.2252 255.9306 15.21517643 33727
LEMUR-2-CELIJO-SB-PK    
1 66781U 25276DW  26189.71530559  .00004042  00000+0  32738-3 0  9996
2 66781  97.5199 259.7831 0007336  80.2189 279.9863 15.00241883 25858
